{"type": "FeatureCollection", "features": [{"type": "Feature", "properties": {"name": "Nepal"}, "geometry": {"type": "Polygon", "coordinates": [[[81.7267, 30.4112], [81.6178, 30.4458], [81.6218, 30.4243], [81.6067, 30.4121], [81.5607, 30.428], [81.5594, 30.4074], [81.5507, 30.4026], [81.5517, 30.3697], [81.4894, 30.3812], [81.4449, 30.4158], [81.4385, 30.4186], [81.4338, 30.4127], [81.4276, 30.4218], [81.4079, 30.421], [81.4006, 30.3961], [81.4292, 30.3833], [81.42, 30.3705], [81.3952, 30.3679], [81.4059, 30.3531], [81.4057, 30.3366], [81.3963, 30.3233], [81.4146, 30.3163], [81.4232, 30.305], [81.4018, 30.293], [81.3995, 30.2815], [81.4165, 30.2816], [81.4083, 30.261], [81.3919, 30.2505], [81.3963, 30.2089], [81.3505, 30.178], [81.332, 30.1531], [81.3167, 30.1519], [81.3048, 30.1642], [81.3035, 30.1593], [81.258, 30.1512], [81.257, 30.1437], [81.2904, 30.1125], [81.2851, 30.1051], [81.2895, 30.0744], [81.2745, 30.059], [81.2718, 30.0452], [81.2373, 30.0317], [81.2531, 30.0236], [81.2451, 30.011], [81.2174, 30.0072], [81.2072, 30.0207], [81.1948, 30.0228], [81.1839, 30.0107], [81.1776, 30.015], [81.1492, 30.0115], [81.1238, 30.0202], [81.1181, 30.0342], [81.0908, 30.0541], [81.108, 30.0879], [81.0982, 30.0999], [81.0811, 30.1004], [81.083, 30.1481], [81.0438, 30.1805], [81.0424, 30.1935], [81.0335, 30.1969], [81.045, 30.21], [81.0289, 30.2198], [81.0288, 30.2329], [80.9886, 30.2467], [80.9761, 30.2379], [80.9274, 30.2358], [80.8971, 30.2122], [80.88, 30.1812], [80.863, 30.1695], [80.8713, 30.1608], [80.8775, 30.1284], [80.8449, 30.1159], [80.8452, 30.1022], [80.837, 30.0974], [80.8154, 30.0963], [80.7794, 30.0566], [80.7612, 30.0494], [80.7556, 30.0395], [80.7575, 30.0238], [80.7446, 30.0039], [80.7195, 30.0002], [80.6741, 29.9571], [80.6486, 29.9558], [80.6298, 29.9651], [80.5953, 29.953], [80.5742, 29.9234], [80.5726, 29.8952], [80.5569, 29.8705], [80.5615, 29.8663], [80.5527, 29.8503], [80.5389, 29.8471], [80.5217, 29.827], [80.5072, 29.823], [80.4933, 29.7955], [80.4639, 29.8022], [80.4441, 29.799], [80.4353, 29.806], [80.4289, 29.798], [80.4069, 29.7944], [80.3975, 29.7592], [80.3851, 29.7585], [80.3858, 29.7503], [80.368, 29.7506], [80.3641, 29.7401], [80.3696, 29.7343], [80.3664, 29.7239], [80.3755, 29.7198], [80.372, 29.7152], [80.3845, 29.6743], [80.3981, 29.6588], [80.4145, 29.6539], [80.4202, 29.6391], [80.4209, 29.6297], [80.4106, 29.6249], [80.4057, 29.6128], [80.408, 29.5953], [80.3879, 29.5717], [80.3791, 29.5714], [80.3788, 29.5613], [80.3636, 29.564], [80.364, 29.5566], [80.3427, 29.5529], [80.3418, 29.5403], [80.358, 29.5325], [80.3496, 29.5188], [80.3138, 29.499], [80.313, 29.4845], [80.299, 29.4905], [80.2866, 29.4768], [80.3025, 29.453], [80.2805, 29.4509], [80.2762, 29.4585], [80.2691, 29.455], [80.2742, 29.4495], [80.2581, 29.4517], [80.2429, 29.4437], [80.2474, 29.4346], [80.2416, 29.4115], [80.2746, 29.393], [80.2789, 29.3785], [80.2713, 29.3736], [80.2711, 29.3645], [80.2793, 29.3594], [80.2801, 29.3462], [80.2962, 29.3242], [80.3169, 29.3147], [80.3179, 29.3016], [80.3043, 29.2852], [80.3003, 29.2421], [80.2907, 29.2315], [80.2973, 29.205], [80.2872, 29.1951], [80.275, 29.207], [80.2608, 29.2067], [80.256, 29.2194], [80.2483, 29.221], [80.2408, 29.2024], [80.2579, 29.1873], [80.2583, 29.1657], [80.2716, 29.142], [80.2541, 29.1379], [80.2333, 29.1184], [80.2097, 29.1218], [80.1834, 29.137], [80.1444, 29.103], [80.1285, 29.061], [80.1365, 29.0588], [80.1246, 29.013], [80.1356, 29.0072], [80.1268, 29.006], [80.1179, 28.9816], [80.1002, 28.9864], [80.0585, 28.9164], [80.0647, 28.8373], [80.075, 28.8243], [80.1181, 28.8288], [80.1709, 28.7823], [80.216, 28.7554], [80.2514, 28.7574], [80.2651, 28.7435], [80.2562, 28.7294], [80.2776, 28.7099], [80.2936, 28.7113], [80.3173, 28.6998], [80.3259, 28.6663], [80.3603, 28.6453], [80.3607, 28.6355], [80.3763, 28.6283], [80.4184, 28.639], [80.4516, 28.6286], [80.4643, 28.6149], [80.4602, 28.6138], [80.4717, 28.5902], [80.4682, 28.5834], [80.4811, 28.5853], [80.5064, 28.568], [80.5176, 28.5518], [80.5307, 28.5722], [80.5216, 28.5769], [80.5035, 28.6652], [80.5398, 28.6906], [80.5686, 28.6879], [80.5903, 28.6797], [80.5801, 28.6613], [80.5975, 28.6559], [80.5897, 28.6477], [80.6062, 28.6523], [80.6115, 28.6393], [80.6332, 28.6373], [80.6414, 28.6432], [80.6512, 28.6339], [80.6675, 28.6419], [80.6795, 28.6204], [80.6773, 28.6043], [80.6956, 28.6034], [80.6902, 28.5871], [80.7146, 28.5679], [80.7245, 28.5748], [80.7387, 28.5659], [80.7383, 28.5742], [80.7679, 28.5656], [80.7695, 28.5497], [80.7895, 28.5434], [80.7845, 28.5293], [80.7889, 28.5243], [80.8154, 28.5206], [80.8443, 28.4955], [80.8552, 28.4971], [80.8655, 28.4895], [80.8615, 28.5041], [80.8758, 28.5097], [80.9086, 28.4976], [80.9014, 28.4857], [80.9057, 28.4658], [80.9156, 28.4576], [80.9144, 28.4678], [80.9175, 28.4597], [80.9305, 28.4576], [80.9425, 28.4684], [80.9322, 28.4586], [80.9515, 28.4556], [80.9517, 28.4475], [80.964, 28.4496], [80.967, 28.457], [80.9798, 28.4552], [80.9648, 28.4446], [80.9652, 28.4378], [80.979, 28.4343], [80.9778, 28.4425], [80.9891, 28.4416], [80.9996, 28.454], [81.0174, 28.4516], [81.0129, 28.4382], [81.0192, 28.4317], [81.0295, 28.4385], [81.0337, 28.4279], [81.0167, 28.4158], [81.0323, 28.3987], [81.0348, 28.4133], [81.0854, 28.3832], [81.2106, 28.3606], [81.2345, 28.3246], [81.2327, 28.289], [81.3205, 28.1972], [81.3212, 28.1688], [81.3017, 28.1661], [81.3106, 28.1556], [81.3201, 28.1602], [81.3279, 28.1483], [81.3183, 28.1452], [81.318, 28.1335], [81.3712, 28.1424], [81.3783, 28.1555], [81.3668, 28.1653], [81.3746, 28.1769], [81.4148, 28.1742], [81.4458, 28.1613], [81.4499, 28.1409], [81.484, 28.1182], [81.4784, 28.0825], [81.617, 28.0104], [81.6243, 28.0014], [81.6434, 27.9938], [81.6983, 27.9882], [81.8048, 27.9034], [81.8327, 27.8981], [81.8854, 27.857], [81.9012, 27.8537], [81.9261, 27.8598], [81.9254, 27.8758], [81.9682, 27.9289], [82.0709, 27.9226], [82.1233, 27.865], [82.15, 27.8579], [82.1539, 27.8662], [82.2082, 27.8431], [82.2304, 27.8208], [82.3038, 27.7726], [82.3671, 27.7426], [82.4016, 27.7029], [82.4487, 27.6787], [82.4732, 27.6765], [82.5162, 27.6904], [82.5411, 27.6857], [82.5936, 27.6969], [82.605, 27.7059], [82.6188, 27.7022], [82.6278, 27.7115], [82.6552, 27.7133], [82.6641, 27.7221], [82.6664, 27.7156], [82.6806, 27.7137], [82.6992, 27.7219], [82.7051, 27.7165], [82.7079, 27.7218], [82.7058, 27.7028], [82.7182, 27.6874], [82.7117, 27.6651], [82.7255, 27.6584], [82.728, 27.6456], [82.7362, 27.6431], [82.7366, 27.6261], [82.7307, 27.624], [82.7366, 27.6217], [82.7348, 27.6096], [82.7558, 27.5877], [82.7477, 27.5719], [82.7512, 27.5652], [82.7435, 27.5609], [82.747, 27.555], [82.7381, 27.552], [82.7494, 27.5228], [82.7367, 27.518], [82.7357, 27.5025], [82.8019, 27.4965], [82.8324, 27.502], [82.9294, 27.5012], [82.9542, 27.4679], [83.0341, 27.4489], [83.1644, 27.4576], [83.1878, 27.4544], [83.2176, 27.4173], [83.2722, 27.3836], [83.2656, 27.3655], [83.2727, 27.3526], [83.2947, 27.3334], [83.3175, 27.3301], [83.3179, 27.3373], [83.3375, 27.3328], [83.3591, 27.3432], [83.3579, 27.3508], [83.3737, 27.3573], [83.3747, 27.37], [83.388, 27.3759], [83.3848, 27.3904], [83.4095, 27.4126], [83.3842, 27.4362], [83.3839, 27.4424], [83.396, 27.4467], [83.4019, 27.4576], [83.4025, 27.4663], [83.3886, 27.4707], [83.3888, 27.4797], [83.6147, 27.4695], [83.8299, 27.3703], [83.8627, 27.3466], [83.8877, 27.3584], [83.9063, 27.3829], [83.9052, 27.3897], [83.8727, 27.3923], [83.8693, 27.4296], [83.9311, 27.4496], [83.9458, 27.4411], [83.966, 27.4466], [83.9775, 27.4393], [83.9961, 27.4462], [83.998, 27.4406], [84.0271, 27.4336], [84.0316, 27.4416], [84.052, 27.4427], [84.0706, 27.4817], [84.0954, 27.4896], [84.0977, 27.5172], [84.1085, 27.5217], [84.1241, 27.511], [84.1457, 27.5188], [84.151, 27.5164], [84.1443, 27.4969], [84.1488, 27.4859], [84.191, 27.4692], [84.2057, 27.4697], [84.2084, 27.4426], [84.2194, 27.4404], [84.2316, 27.4563], [84.2541, 27.4521], [84.2781, 27.4156], [84.2763, 27.3956], [84.2824, 27.3965], [84.292, 27.3848], [84.3005, 27.3904], [84.3325, 27.3774], [84.3727, 27.3766], [84.3917, 27.3682], [84.4411, 27.3702], [84.4695, 27.3552], [84.4763, 27.3625], [84.6076, 27.3354], [84.6187, 27.3378], [84.6479, 27.2978], [84.6909, 27.215], [84.6804, 27.2006], [84.6791, 27.1856], [84.6852, 27.1805], [84.6752, 27.1709], [84.6808, 27.1688], [84.6768, 27.1625], [84.6866, 27.1585], [84.6803, 27.152], [84.6769, 27.1152], [84.6698, 27.1104], [84.6747, 27.1087], [84.6745, 27.0964], [84.6647, 27.0946], [84.6702, 27.0909], [84.6462, 27.0756], [84.6427, 27.0464], [84.7566, 27.0028], [84.773, 27.0178], [84.7887, 27.0089], [84.7862, 26.9985], [84.7935, 26.9958], [84.797, 27.0041], [84.8001, 27.0007], [84.8082, 27.0078], [84.8119, 27.0208], [84.8255, 27.0209], [84.8546, 27.0082], [84.85, 26.9984], [84.8577, 26.9977], [84.856, 26.9865], [84.8885, 26.9775], [84.8913, 26.9698], [84.9622, 26.9605], [84.9782, 26.9403], [84.9675, 26.9162], [84.9994, 26.9122], [85.0021, 26.9034], [84.9926, 26.9029], [85.0038, 26.8951], [85.0601, 26.8869], [85.0551, 26.8814], [85.0483, 26.8852], [85.0521, 26.8812], [85.0416, 26.8746], [85.0292, 26.8753], [85.0286, 26.8593], [85.0219, 26.8549], [85.0573, 26.8491], [85.0578, 26.8561], [85.0645, 26.8568], [85.0638, 26.8496], [85.0782, 26.8588], [85.0871, 26.8529], [85.0866, 26.8674], [85.111, 26.8724], [85.1898, 26.8701], [85.1911, 26.8312], [85.1766, 26.8097], [85.1802, 26.7957], [85.1933, 26.7906], [85.197, 26.7699], [85.2117, 26.7579], [85.2401, 26.7619], [85.3066, 26.7522], [85.3344, 26.7415], [85.3552, 26.7603], [85.3751, 26.7606], [85.4076, 26.7912], [85.4546, 26.7819], [85.4775, 26.7924], [85.4797, 26.8023], [85.4957, 26.797], [85.4976, 26.812], [85.5197, 26.8144], [85.5429, 26.8384], [85.5533, 26.8343], [85.5575, 26.844], [85.5656, 26.8409], [85.5752, 26.861], [85.5836, 26.8581], [85.5851, 26.8472], [85.6068, 26.8572], [85.6233, 26.8736], [85.6343, 26.8722], [85.6422, 26.8532], [85.6793, 26.8437], [85.7206, 26.8205], [85.7343, 26.7959], [85.7286, 26.75], [85.734, 26.7374], [85.7259, 26.7213], [85.7232, 26.6868], [85.7253, 26.6704], [85.7363, 26.6639], [85.7341, 26.6505], [85.7692, 26.6299], [85.8013, 26.6243], [85.8032, 26.6149], [85.8174, 26.6027], [85.8305, 26.6016], [85.8311, 26.6113], [85.8509, 26.6085], [85.8577, 26.5899], [85.849, 26.5689], [85.8877, 26.5832], [85.8916, 26.5944], [85.9006, 26.595], [85.9138, 26.6089], [85.927, 26.6096], [85.9284, 26.6165], [85.9479, 26.6135], [85.946, 26.6212], [85.9554, 26.6306], [85.9532, 26.6439], [85.9601, 26.6513], [85.9758, 26.6582], [86.0097, 26.6539], [86.0269, 26.6667], [86.0679, 26.6579], [86.0738, 26.6497], [86.1193, 26.63], [86.1383, 26.6289], [86.1359, 26.6065], [86.1714, 26.6171], [86.1921, 26.6147], [86.1955, 26.5944], [86.2053, 26.5966], [86.2172, 26.5884], [86.2343, 26.5908], [86.252, 26.6171], [86.2928, 26.6132], [86.3077, 26.62], [86.3332, 26.6189], [86.3447, 26.6167], [86.3408, 26.606], [86.3968, 26.5935], [86.3949, 26.5851], [86.4554, 26.5681], [86.4972, 26.5423], [86.5417, 26.5385], [86.5702, 26.4965], [86.6205, 26.4844], [86.6333, 26.4645], [86.6933, 26.4512], [86.6997, 26.4373], [86.72, 26.4349], [86.7308, 26.4223], [86.7469, 26.4285], [86.7439, 26.4349], [86.7662, 26.4593], [86.8333, 26.439], [86.8467, 26.4419], [86.8458, 26.4482], [86.8559, 26.4485], [86.8608, 26.4576], [86.8728, 26.454], [86.8936, 26.4619], [86.8915, 26.4861], [86.9297, 26.4896], [86.9325, 26.5167], [86.9612, 26.5238], [86.975, 26.52], [87.0152, 26.5321], [87.0422, 26.5683], [87.0445, 26.5873], [87.0717, 26.5858], [87.0726, 26.542], [87.0914, 26.4503], [87.1624, 26.4041], [87.1889, 26.4055], [87.1858, 26.4143], [87.2112, 26.4131], [87.2188, 26.4032], [87.2287, 26.4137], [87.2561, 26.4111], [87.266, 26.4056], [87.2658, 26.3739], [87.2893, 26.3737], [87.3012, 26.3663], [87.3122, 26.3715], [87.3409, 26.3478], [87.3582, 26.3611], [87.3532, 26.372], [87.3563, 26.3882], [87.3686, 26.4081], [87.376, 26.407], [87.3884, 26.4191], [87.4276, 26.4224], [87.4665, 26.4404], [87.5474, 26.4185], [87.5527, 26.4057], [87.5876, 26.3926], [87.587, 26.3822], [87.6045, 26.3808], [87.612, 26.3902], [87.6517, 26.3935], [87.6501, 26.4059], [87.6782, 26.4158], [87.6776, 26.4354], [87.711, 26.4274], [87.7335, 26.4078], [87.739, 26.4176], [87.7473, 26.4179], [87.7537, 26.4082], [87.767, 26.4114], [87.7674, 26.4189], [87.7709, 26.4219], [87.7726, 26.4195], [87.7761, 26.4219], [87.7704, 26.4275], [87.7777, 26.4359], [87.7728, 26.4361], [87.7776, 26.4427], [87.7737, 26.4505], [87.7885, 26.4615], [87.7888, 26.4693], [87.8295, 26.4502], [87.8281, 26.4402], [87.8485, 26.4365], [87.8508, 26.4453], [87.8613, 26.4489], [87.858, 26.4636], [87.8854, 26.4765], [87.888, 26.4867], [87.8999, 26.4775], [87.9095, 26.4578], [87.8986, 26.4488], [87.9247, 26.4456], [87.9158, 26.4319], [87.9259, 26.4277], [87.9267, 26.4183], [87.9657, 26.3972], [87.9915, 26.3926], [87.9923, 26.3697], [88.0075, 26.3611], [88.0299, 26.365], [88.027, 26.3819], [88.0342, 26.3921], [88.0553, 26.4008], [88.0599, 26.4097], [88.0713, 26.4081], [88.0696, 26.4135], [88.0951, 26.4384], [88.0918, 26.4631], [88.1029, 26.4658], [88.0978, 26.4726], [88.1071, 26.4752], [88.1002, 26.4798], [88.1056, 26.4895], [88.0986, 26.5058], [88.0902, 26.5068], [88.103, 26.5189], [88.1036, 26.5364], [88.098, 26.5374], [88.1114, 26.5452], [88.1053, 26.5609], [88.1133, 26.5583], [88.112, 26.5714], [88.119, 26.5682], [88.1175, 26.5746], [88.1228, 26.5723], [88.1247, 26.5776], [88.1301, 26.5737], [88.1298, 26.6013], [88.139, 26.6068], [88.1419, 26.6258], [88.1604, 26.6366], [88.167, 26.6996], [88.1819, 26.7195], [88.1863, 26.7385], [88.1878, 26.7717], [88.1741, 26.8335], [88.1674, 26.8377], [88.1744, 26.8595], [88.1616, 26.8809], [88.1363, 26.8987], [88.1459, 26.921], [88.1203, 26.9506], [88.1231, 26.9699], [88.1354, 26.9849], [88.115, 26.9888], [88.0921, 27.0045], [88.0775, 27.0353], [88.0596, 27.0291], [88.0375, 27.0366], [88.0161, 27.0738], [88.021, 27.0877], [88.0033, 27.1044], [87.9915, 27.1054], [87.9873, 27.1193], [87.9911, 27.1308], [88.0073, 27.1433], [88.0109, 27.1658], [88.0192, 27.171], [88.0124, 27.1775], [88.0121, 27.216], [88.0307, 27.25], [88.0316, 27.2862], [88.0447, 27.2937], [88.0414, 27.3043], [88.0665, 27.3359], [88.0416, 27.372], [88.0504, 27.4129], [88.0801, 27.4298], [88.0678, 27.4383], [88.0724, 27.4453], [88.0669, 27.4579], [88.0438, 27.4785], [88.0436, 27.496], [88.0614, 27.5121], [88.0573, 27.5179], [88.0671, 27.5263], [88.0589, 27.5351], [88.0691, 27.5558], [88.0809, 27.5648], [88.0751, 27.572], [88.0819, 27.585], [88.1135, 27.6106], [88.1199, 27.6456], [88.1445, 27.6656], [88.1547, 27.6907], [88.1473, 27.703], [88.1553, 27.7174], [88.1561, 27.7365], [88.1784, 27.747], [88.1811, 27.7759], [88.1972, 27.7908], [88.173, 27.8205], [88.2011, 27.8374], [88.1956, 27.8545], [88.1782, 27.8567], [88.1348, 27.8817], [88.1263, 27.8817], [88.1122, 27.8684], [88.0957, 27.8672], [88.084, 27.8955], [88.0643, 27.8863], [88.03, 27.9059], [88.0215, 27.8966], [88.0023, 27.8981], [87.9847, 27.8859], [87.9664, 27.8932], [87.9556, 27.909], [87.939, 27.9108], [87.9321, 27.9179], [87.8658, 27.9108], [87.8539, 27.9287], [87.8569, 27.9479], [87.8317, 27.9528], [87.8246, 27.9202], [87.8135, 27.9214], [87.804, 27.9089], [87.7845, 27.8993], [87.7753, 27.8779], [87.7785, 27.8659], [87.7661, 27.8595], [87.7533, 27.8359], [87.7437, 27.8352], [87.7337, 27.8191], [87.7362, 27.813], [87.7252, 27.8053], [87.6985, 27.8122], [87.6653, 27.8068], [87.6629, 27.8226], [87.6696, 27.83], [87.665, 27.8364], [87.6357, 27.8344], [87.6319, 27.8248], [87.6114, 27.8105], [87.6014, 27.8211], [87.5894, 27.8204], [87.5862, 27.8528], [87.5787, 27.862], [87.5623, 27.867], [87.552, 27.8651], [87.5358, 27.8431], [87.49, 27.8464], [87.4497, 27.8223], [87.4035, 27.834], [87.4316, 27.8424], [87.4185, 27.8625], [87.4025, 27.8519], [87.3737, 27.8453], [87.3575, 27.8278], [87.3177, 27.8257], [87.3043, 27.8355], [87.3035, 27.8434], [87.2603, 27.8509], [87.2385, 27.8394], [87.2256, 27.8197], [87.1718, 27.8211], [87.1404, 27.8371], [87.1262, 27.8342], [87.1158, 27.8403], [87.108, 27.8543], [87.1071, 27.8749], [87.0887, 27.8826], [87.0777, 27.9028], [87.0782, 27.9156], [87.0533, 27.9266], [87.039, 27.9504], [87.0241, 27.95], [87.0156, 27.9577], [86.9823, 27.9495], [86.9343, 27.9619], [86.933, 27.978], [86.9252, 27.9878], [86.8898, 27.9969], [86.8729, 28.0104], [86.8673, 28.0252], [86.8519, 28.0276], [86.8357, 28.0153], [86.8026, 28.0235], [86.79, 28.0189], [86.7732, 28.038], [86.7528, 28.0379], [86.7467, 28.0505], [86.7648, 28.0746], [86.7507, 28.0813], [86.7482, 28.0949], [86.7382, 28.1037], [86.689, 28.1086], [86.6635, 28.0979], [86.6578, 28.081], [86.6347, 28.0707], [86.6082, 28.0759], [86.6042, 28.1001], [86.5743, 28.113], [86.5618, 28.1051], [86.5667, 28.0918], [86.5585, 28.0778], [86.5652, 28.0689], [86.5488, 28.0507], [86.5355, 28.0501], [86.5313, 28.0271], [86.521, 28.0193], [86.5127, 27.9847], [86.52, 27.9743], [86.5121, 27.9682], [86.516, 27.957], [86.4976, 27.9571], [86.4693, 27.9461], [86.4698, 27.93], [86.4423, 27.9056], [86.4106, 27.9065], [86.3812, 27.9378], [86.3478, 27.9375], [86.3375, 27.9494], [86.3352, 27.965], [86.3187, 27.9478], [86.3039, 27.9555], [86.2887, 27.9783], [86.2663, 27.9804], [86.2373, 27.973], [86.2266, 27.9809], [86.2199, 28.0109], [86.225, 28.0316], [86.2041, 28.0839], [86.2076, 28.0943], [86.2224, 28.0957], [86.2197, 28.1116], [86.1971, 28.1382], [86.1972, 28.1563], [86.1866, 28.1741], [86.1737, 28.1682], [86.178, 28.1435], [86.1419, 28.126], [86.1404, 28.1177], [86.1322, 28.1166], [86.1301, 28.1001], [86.1177, 28.0913], [86.092, 28.0978], [86.0827, 28.0909], [86.0947, 28.0618], [86.0874, 28.0493], [86.0904, 28.0331], [86.0793, 28.0203], [86.1035, 27.9841], [86.107, 27.9558], [86.1235, 27.9415], [86.1239, 27.9276], [86.0664, 27.911], [86.0647, 27.8997], [86.0231, 27.9076], [86.0136, 27.915], [86.0005, 27.9113], [85.9486, 27.941], [85.9597, 27.9675], [85.9782, 27.9878], [85.977, 27.9966], [85.9357, 28.0241], [85.9148, 28.0493], [85.9008, 28.0538], [85.8962, 28.0742], [85.9032, 28.0892], [85.8979, 28.109], [85.87, 28.1237], [85.8718, 28.1444], [85.8512, 28.1671], [85.8484, 28.1841], [85.8288, 28.185], [85.8156, 28.2033], [85.7999, 28.1963], [85.7763, 28.2085], [85.7739, 28.218], [85.7487, 28.2381], [85.7329, 28.2912], [85.7371, 28.3192], [85.7274, 28.3288], [85.7321, 28.3393], [85.7198, 28.3594], [85.7242, 28.3733], [85.7117, 28.3861], [85.6838, 28.3824], [85.6861, 28.3469], [85.6656, 28.348], [85.6643, 28.3317], [85.6536, 28.3174], [85.6606, 28.3029], [85.6353, 28.2739], [85.6086, 28.2568], [85.5989, 28.2792], [85.6005, 28.3043], [85.5616, 28.3098], [85.5064, 28.3339], [85.4579, 28.337], [85.4153, 28.3271], [85.4119, 28.3083], [85.3775, 28.2785], [85.3701, 28.2857], [85.3481, 28.2884], [85.3481, 28.3016], [85.3403, 28.3039], [85.3035, 28.2898], [85.2728, 28.2877], [85.2704, 28.2973], [85.2547, 28.2944], [85.2413, 28.3178], [85.2023, 28.3406], [85.1817, 28.3242], [85.1667, 28.3316], [85.1207, 28.3357], [85.1078, 28.3465], [85.1265, 28.3924], [85.1157, 28.4088], [85.1142, 28.4431], [85.1027, 28.4478], [85.0994, 28.4568], [85.1184, 28.4855], [85.1528, 28.4905], [85.166, 28.532], [85.1868, 28.5342], [85.1846, 28.5613], [85.1914, 28.569], [85.1735, 28.5974], [85.1888, 28.605], [85.1972, 28.6208], [85.1975, 28.6271], [85.1847, 28.6322], [85.1883, 28.6412], [85.1571, 28.6429], [85.1323, 28.6759], [85.1148, 28.6867], [85.0838, 28.6709], [85.0585, 28.6824], [85.0519, 28.67], [85.0411, 28.6684], [85.0402, 28.658], [85.0088, 28.6371], [84.9887, 28.6129], [84.986, 28.6051], [84.9927, 28.5998], [84.9833, 28.5914], [84.9488, 28.5801], [84.9448, 28.5948], [84.9196, 28.5952], [84.9069, 28.5881], [84.9009, 28.5932], [84.8859, 28.5826], [84.8669, 28.5816], [84.857, 28.5706], [84.7806, 28.6095], [84.7367, 28.6169], [84.7137, 28.6329], [84.6947, 28.6364], [84.7048, 28.6711], [84.6682, 28.6834], [84.6664, 28.6942], [84.6505, 28.7024], [84.6434, 28.7252], [84.6262, 28.7365], [84.5716, 28.7351], [84.5566, 28.7521], [84.5248, 28.7422], [84.5146, 28.7485], [84.4918, 28.7347], [84.4802, 28.7471], [84.4603, 28.7513], [84.4518, 28.7647], [84.4364, 28.7694], [84.4459, 28.7832], [84.4452, 28.7933], [84.4319, 28.8014], [84.4295, 28.8133], [84.4352, 28.8209], [84.4188, 28.8315], [84.4005, 28.8302], [84.4088, 28.8535], [84.3751, 28.8644], [84.3569, 28.8593], [84.343, 28.8729], [84.3235, 28.8627], [84.2877, 28.8769], [84.2654, 28.8977], [84.2537, 28.8902], [84.2256, 28.8942], [84.2204, 28.9156], [84.2314, 28.9597], [84.2417, 28.9761], [84.2382, 28.9877], [84.2477, 29.0126], [84.2477, 29.0372], [84.2215, 29.0534], [84.1896, 29.0469], [84.186, 29.0807], [84.2016, 29.1038], [84.2008, 29.124], [84.1747, 29.1308], [84.1622, 29.1852], [84.1774, 29.2068], [84.1882, 29.2057], [84.1996, 29.2139], [84.2006, 29.2403], [84.1563, 29.2416], [84.1411, 29.2362], [84.1162, 29.2441], [84.1123, 29.263], [84.1215, 29.2703], [84.1201, 29.2796], [84.0877, 29.2946], [84.0687, 29.2853], [84.0438, 29.3008], [84.0263, 29.2856], [83.9898, 29.2963], [83.9889, 29.3026], [84.0008, 29.312], [83.9757, 29.3286], [83.9626, 29.3313], [83.9428, 29.3162], [83.9047, 29.3257], [83.8979, 29.3188], [83.8566, 29.3098], [83.848, 29.2976], [83.8125, 29.3019], [83.8077, 29.2858], [83.7944, 29.2774], [83.8022, 29.2563], [83.7972, 29.25], [83.771, 29.2468], [83.762, 29.24], [83.7112, 29.2446], [83.6841, 29.2131], [83.6558, 29.2039], [83.6632, 29.1828], [83.6405, 29.1607], [83.6307, 29.1597], [83.6101, 29.1807], [83.5901, 29.1742], [83.5784, 29.1788], [83.5699, 29.1905], [83.572, 29.2025], [83.539, 29.2027], [83.5188, 29.2185], [83.5151, 29.228], [83.5227, 29.2382], [83.5147, 29.2558], [83.5041, 29.2556], [83.4915, 29.2648], [83.4934, 29.2738], [83.4871, 29.2801], [83.4651, 29.2745], [83.4513, 29.2975], [83.4435, 29.2999], [83.4381, 29.3091], [83.4448, 29.3404], [83.4379, 29.3501], [83.4163, 29.3568], [83.4131, 29.3669], [83.4117, 29.3803], [83.4226, 29.3846], [83.4204, 29.3974], [83.4261, 29.4024], [83.4159, 29.4104], [83.4132, 29.4218], [83.3713, 29.4285], [83.3643, 29.4397], [83.3661, 29.45], [83.3537, 29.4514], [83.3423, 29.4658], [83.3471, 29.4925], [83.3157, 29.5089], [83.3022, 29.4997], [83.2934, 29.5044], [83.282, 29.4987], [83.2674, 29.5074], [83.2687, 29.5221], [83.2558, 29.5392], [83.2553, 29.5567], [83.282, 29.5575], [83.2778, 29.5689], [83.2694, 29.5683], [83.2611, 29.5776], [83.2319, 29.5778], [83.2144, 29.5892], [83.218, 29.6054], [83.1988, 29.6062], [83.1967, 29.6111], [83.1876, 29.6082], [83.1883, 29.5974], [83.1799, 29.5929], [83.159, 29.5964], [83.165, 29.6159], [83.15, 29.6238], [83.1314, 29.6178], [83.1202, 29.6285], [83.1164, 29.6164], [83.0901, 29.612], [83.0922, 29.6054], [83.0856, 29.6027], [83.0693, 29.6099], [83.0654, 29.626], [83.0433, 29.6308], [83.0334, 29.6542], [83.0209, 29.6506], [83.0085, 29.6725], [83.0004, 29.6645], [82.9849, 29.6684], [82.9556, 29.6626], [82.9408, 29.6741], [82.9483, 29.6915], [82.9354, 29.7054], [82.9267, 29.7006], [82.9149, 29.7064], [82.9082, 29.7003], [82.8908, 29.7014], [82.8861, 29.6927], [82.8606, 29.6845], [82.8263, 29.6898], [82.8149, 29.7047], [82.8213, 29.7138], [82.8178, 29.7211], [82.7975, 29.719], [82.7628, 29.7311], [82.7666, 29.7424], [82.7521, 29.7655], [82.7237, 29.7705], [82.69, 29.7631], [82.6864, 29.7734], [82.696, 29.7816], [82.694, 29.7911], [82.7102, 29.7927], [82.737, 29.8135], [82.7265, 29.8353], [82.7105, 29.8388], [82.6971, 29.8553], [82.6396, 29.8338], [82.6209, 29.8372], [82.6202, 29.845], [82.6316, 29.8496], [82.6422, 29.8705], [82.6023, 29.889], [82.5847, 29.9212], [82.5666, 29.9324], [82.563, 29.9552], [82.5492, 29.9632], [82.5296, 29.9711], [82.514, 29.9521], [82.4991, 29.946], [82.4738, 29.9652], [82.476, 29.9736], [82.432, 29.9889], [82.3954, 30.0239], [82.3871, 30.0204], [82.3758, 30.0264], [82.3777, 30.0111], [82.3726, 30.0156], [82.3629, 30.0104], [82.3594, 30.0216], [82.3447, 30.0288], [82.334, 30.0468], [82.3199, 30.0494], [82.3156, 30.0403], [82.2984, 30.0378], [82.2851, 30.0472], [82.2812, 30.0611], [82.2654, 30.0621], [82.2466, 30.0751], [82.2311, 30.0648], [82.1884, 30.0697], [82.1718, 30.0652], [82.1658, 30.0814], [82.177, 30.0889], [82.1864, 30.1109], [82.1707, 30.1219], [82.1987, 30.1362], [82.2054, 30.1536], [82.1819, 30.1608], [82.1844, 30.1907], [82.1586, 30.1892], [82.139, 30.1988], [82.1275, 30.2254], [82.1093, 30.2259], [82.0983, 30.2391], [82.1073, 30.255], [82.118, 30.2588], [82.1161, 30.2722], [82.1093, 30.2771], [82.1163, 30.2941], [82.1282, 30.3021], [82.1052, 30.3492], [82.0735, 30.3587], [82.0658, 30.3553], [82.0559, 30.3325], [82.0162, 30.3441], [82.011, 30.3418], [82.012, 30.3291], [81.9883, 30.3207], [81.9566, 30.3412], [81.9621, 30.3507], [81.9492, 30.3589], [81.9394, 30.3475], [81.9144, 30.3499], [81.882, 30.3607], [81.8676, 30.3772], [81.8263, 30.375], [81.8089, 30.3872], [81.751, 30.3887], [81.7316, 30.3982], [81.7267, 30.4112]]]}}]}